CCSDS_OMM_VERS = 2.0
CREATION_DATE  = 
ORIGINATOR     = 

OBJECT_NAME    = ATLAS CENTAUR R/B
OBJECT_ID      = 1972-065B
CENTER_NAME    = EARTH
REF_FRAME      = TEME
TIME_SYSTEM    = UTC
MEAN_ELEMENT_THEORY = SGP/SGP4

EPOCH          = 2026-02-16T09:49:46.054848
MEAN_MOTION    = 14.77622708
ECCENTRICITY   = .0033944
INCLINATION    = 35.0016
RA_OF_ASC_NODE = 70.4544
ARG_OF_PERICENTER = 192.1684
MEAN_ANOMALY   = 167.8199

EPHEMERIS_TYPE = 0
CLASSIFICATION_TYPE = U
NORAD_CAT_ID   = 6155
ELEMENT_SET_NO = 999
REV_AT_EPOCH   = 83811
BSTAR          = .19255E-3
MEAN_MOTION_DOT = .139E-4
MEAN_MOTION_DDOT = 0

CCSDS_OMM_VERS = 2.0
CREATION_DATE  = 
ORIGINATOR     = 

OBJECT_NAME    = SL-8 R/B
OBJECT_ID      = 1975-112B
CENTER_NAME    = EARTH
REF_FRAME      = TEME
TIME_SYSTEM    = UTC
MEAN_ELEMENT_THEORY = SGP/SGP4

EPOCH          = 2026-02-16T11:54:20.727072
MEAN_MOTION    = 14.38192321
ECCENTRICITY   = .0015097
INCLINATION    = 74.0592
RA_OF_ASC_NODE = 57.9005
ARG_OF_PERICENTER = 159.1178
MEAN_ANOMALY   = 201.0596

EPHEMERIS_TYPE = 0
CLASSIFICATION_TYPE = U
NORAD_CAT_ID   = 8459
ELEMENT_SET_NO = 999
REV_AT_EPOCH   = 62882
BSTAR          = .68373E-4
MEAN_MOTION_DOT = .182E-5
MEAN_MOTION_DDOT = 0

CCSDS_OMM_VERS = 2.0
CREATION_DATE  = 
ORIGINATOR     = 

OBJECT_NAME    = SL-3 R/B
OBJECT_ID      = 1977-057B
CENTER_NAME    = EARTH
REF_FRAME      = TEME
TIME_SYSTEM    = UTC
MEAN_ELEMENT_THEORY = SGP/SGP4

EPOCH          = 2026-02-16T11:27:45.261216
MEAN_MOTION    = 15.44864480
ECCENTRICITY   = .0007438
INCLINATION    = 97.5733
RA_OF_ASC_NODE = 218.4794
ARG_OF_PERICENTER = 8.7305
MEAN_ANOMALY   = 351.4071

EPHEMERIS_TYPE = 0
CLASSIFICATION_TYPE = U
NORAD_CAT_ID   = 10114
ELEMENT_SET_NO = 999
REV_AT_EPOCH   = 66505
BSTAR          = .30182E-3
MEAN_MOTION_DOT = .14092E-3
MEAN_MOTION_DDOT = 0

CCSDS_OMM_VERS = 2.0
CREATION_DATE  = 
ORIGINATOR     = 

OBJECT_NAME    = SEASAT 1
OBJECT_ID      = 1978-064A
CENTER_NAME    = EARTH
REF_FRAME      = TEME
TIME_SYSTEM    = UTC
MEAN_ELEMENT_THEORY = SGP/SGP4

EPOCH          = 2026-02-16T01:15:44.171712
MEAN_MOTION    = 14.46142901
ECCENTRICITY   = .00017312
INCLINATION    = 108.0158
RA_OF_ASC_NODE = 80.0926
ARG_OF_PERICENTER = 292.0124
MEAN_ANOMALY   = 68.0838

EPHEMERIS_TYPE = 0
CLASSIFICATION_TYPE = U
NORAD_CAT_ID   = 10967
ELEMENT_SET_NO = 999
REV_AT_EPOCH   = 50338
BSTAR          = .11965894E-3
MEAN_MOTION_DOT = .29E-5
MEAN_MOTION_DDOT = 0

CCSDS_OMM_VERS = 2.0
CREATION_DATE  = 
ORIGINATOR     = 

OBJECT_NAME    = SL-14 R/B
OBJECT_ID      = 1979-011B
CENTER_NAME    = EARTH
REF_FRAME      = TEME
TIME_SYSTEM    = UTC
MEAN_ELEMENT_THEORY = SGP/SGP4

EPOCH          = 2026-02-16T06:02:55.593312
MEAN_MOTION    = 14.91882209
ECCENTRICITY   = .0017378
INCLINATION    = 82.5240
RA_OF_ASC_NODE = 116.9135
ARG_OF_PERICENTER = 126.2199
MEAN_ANOMALY   = 234.0630

EPHEMERIS_TYPE = 0
CLASSIFICATION_TYPE = U
NORAD_CAT_ID   = 11267
ELEMENT_SET_NO = 999
REV_AT_EPOCH   = 52558
BSTAR          = .60482E-4
MEAN_MOTION_DOT = .638E-5
MEAN_MOTION_DDOT = 0

CCSDS_OMM_VERS = 2.0
CREATION_DATE  = 
ORIGINATOR     = 

OBJECT_NAME    = SL-8 R/B
OBJECT_ID      = 1979-089B
CENTER_NAME    = EARTH
REF_FRAME      = TEME
TIME_SYSTEM    = UTC
MEAN_ELEMENT_THEORY = SGP/SGP4

EPOCH          = 2026-02-16T09:11:06.678816
MEAN_MOTION    = 14.42337363
ECCENTRICITY   = .0016802
INCLINATION    = 74.0693
RA_OF_ASC_NODE = 130.4855
ARG_OF_PERICENTER = 305.5567
MEAN_ANOMALY   = 54.4022

EPHEMERIS_TYPE = 0
CLASSIFICATION_TYPE = U
NORAD_CAT_ID   = 11574
ELEMENT_SET_NO = 999
REV_AT_EPOCH   = 43303
BSTAR          = .90876E-4
MEAN_MOTION_DOT = .274E-5
MEAN_MOTION_DDOT = 0

CCSDS_OMM_VERS = 2.0
CREATION_DATE  = 
ORIGINATOR     = 

OBJECT_NAME    = SL-14 R/B
OBJECT_ID      = 1980-005B
CENTER_NAME    = EARTH
REF_FRAME      = TEME
TIME_SYSTEM    = UTC
MEAN_ELEMENT_THEORY = SGP/SGP4

EPOCH          = 2026-02-16T06:01:23.452896
MEAN_MOTION    = 14.90902614
ECCENTRICITY   = .0014365
INCLINATION    = 82.5174
RA_OF_ASC_NODE = 327.5671
ARG_OF_PERICENTER = 231.7031
MEAN_ANOMALY   = 128.2897

EPHEMERIS_TYPE = 0
CLASSIFICATION_TYPE = U
NORAD_CAT_ID   = 11672
ELEMENT_SET_NO = 999
REV_AT_EPOCH   = 47329
BSTAR          = .66558E-4
MEAN_MOTION_DOT = .682E-5
MEAN_MOTION_DDOT = 0

CCSDS_OMM_VERS = 2.0
CREATION_DATE  = 
ORIGINATOR     = 

OBJECT_NAME    = SL-8 R/B
OBJECT_ID      = 1981-003B
CENTER_NAME    = EARTH
REF_FRAME      = TEME
TIME_SYSTEM    = UTC
MEAN_ELEMENT_THEORY = SGP/SGP4

EPOCH          = 2026-02-16T04:56:40.710336
MEAN_MOTION    = 15.10178344
ECCENTRICITY   = .0262569
INCLINATION    = 82.9402
RA_OF_ASC_NODE = 309.8760
ARG_OF_PERICENTER = 253.5267
MEAN_ANOMALY   = 103.6967

EPHEMERIS_TYPE = 0
CLASSIFICATION_TYPE = U
NORAD_CAT_ID   = 12139
ELEMENT_SET_NO = 999
REV_AT_EPOCH   = 31143
BSTAR          = .41884E-3
MEAN_MOTION_DOT = .15883E-3
MEAN_MOTION_DDOT = 0

CCSDS_OMM_VERS = 2.0
CREATION_DATE  = 
ORIGINATOR     = 

OBJECT_NAME    = SL-3 R/B
OBJECT_ID      = 1981-046B
CENTER_NAME    = EARTH
REF_FRAME      = TEME
TIME_SYSTEM    = UTC
MEAN_ELEMENT_THEORY = SGP/SGP4

EPOCH          = 2026-02-16T08:46:52.520160
MEAN_MOTION    = 15.41396066
ECCENTRICITY   = .0020794
INCLINATION    = 81.2345
RA_OF_ASC_NODE = 315.3337
ARG_OF_PERICENTER = 92.5776
MEAN_ANOMALY   = 267.7848

EPHEMERIS_TYPE = 0
CLASSIFICATION_TYPE = U
NORAD_CAT_ID   = 12465
ELEMENT_SET_NO = 999
REV_AT_EPOCH   = 43514
BSTAR          = .35812E-3
MEAN_MOTION_DOT = .15115E-3
MEAN_MOTION_DDOT = 0

CCSDS_OMM_VERS = 2.0
CREATION_DATE  = 
ORIGINATOR     = 

OBJECT_NAME    = SL-3 R/B
OBJECT_ID      = 1981-103B
CENTER_NAME    = EARTH
REF_FRAME      = TEME
TIME_SYSTEM    = UTC
MEAN_ELEMENT_THEORY = SGP/SGP4

EPOCH          = 2026-02-16T12:38:07.625760
MEAN_MOTION    = 15.21112009
ECCENTRICITY   = .0013326
INCLINATION    = 81.1556
RA_OF_ASC_NODE = 238.2572
ARG_OF_PERICENTER = 0.7391
MEAN_ANOMALY   = 359.3857

EPHEMERIS_TYPE = 0
CLASSIFICATION_TYPE = U
NORAD_CAT_ID   = 12904
ELEMENT_SET_NO = 999
REV_AT_EPOCH   = 97001
BSTAR          = .28001E-3
MEAN_MOTION_DOT = .6267E-4
MEAN_MOTION_DDOT = 0

CCSDS_OMM_VERS = 2.0
CREATION_DATE  = 
ORIGINATOR     = 

OBJECT_NAME    = SL-3 R/B
OBJECT_ID      = 1982-013B
CENTER_NAME    = EARTH
REF_FRAME      = TEME
TIME_SYSTEM    = UTC
MEAN_ELEMENT_THEORY = SGP/SGP4

EPOCH          = 2026-02-16T11:28:06.177792
MEAN_MOTION    = 15.21773772
ECCENTRICITY   = .002171
INCLINATION    = 81.1751
RA_OF_ASC_NODE = 185.6223
ARG_OF_PERICENTER = 250.6176
MEAN_ANOMALY   = 109.2709

EPHEMERIS_TYPE = 0
CLASSIFICATION_TYPE = U
NORAD_CAT_ID   = 13068
ELEMENT_SET_NO = 999
REV_AT_EPOCH   = 40112
BSTAR          = .23772E-3
MEAN_MOTION_DOT = .545E-4
MEAN_MOTION_DDOT = 0

CCSDS_OMM_VERS = 2.0
CREATION_DATE  = 
ORIGINATOR     = 

OBJECT_NAME    = SL-3 R/B
OBJECT_ID      = 1982-039B
CENTER_NAME    = EARTH
REF_FRAME      = TEME
TIME_SYSTEM    = UTC
MEAN_ELEMENT_THEORY = SGP/SGP4

EPOCH          = 2026-02-16T12:26:26.157984
MEAN_MOTION    = 15.09958057
ECCENTRICITY   = .0030041
INCLINATION    = 81.1592
RA_OF_ASC_NODE = 240.3670
ARG_OF_PERICENTER = 33.6691
MEAN_ANOMALY   = 326.6435

EPHEMERIS_TYPE = 0
CLASSIFICATION_TYPE = U
NORAD_CAT_ID   = 13154
ELEMENT_SET_NO = 999
REV_AT_EPOCH   = 37844
BSTAR          = .15899E-3
MEAN_MOTION_DOT = .263E-4
MEAN_MOTION_DDOT = 0

