ATLAS CENTAUR R/B       
1 06155U 72065B   26047.40956082  .00001390  00000+0  19255-3 0  9997
2 06155  35.0016  70.4544 0033944 192.1684 167.8199 14.77622708838118
SL-8 R/B                
1 08459U 75112B   26047.49607323  .00000182  00000+0  68373-4 0  9996
2 08459  74.0592  57.9005 0015097 159.1178 201.0596 14.38192321628828
SL-3 R/B                
1 10114U 77057B   26047.47760719  .00014092  00000+0  30182-3 0  9995
2 10114  97.5733 218.4794 0007438   8.7305 351.4071 15.44864480665050
SEASAT 1                
1 10967U 78064A   26047.05259458  .00000290  00000+0  11966-3 0  9991
2 10967 108.0158  80.0926 0001731 292.0124  68.0838 14.46142901503389
SL-14 R/B               
1 11267U 79011B   26047.25203233  .00000638  00000+0  60482-4 0  9994
2 11267  82.5240 116.9135 0017378 126.2199 234.0630 14.91882209525589
SL-8 R/B                
1 11574U 79089B   26047.38271619  .00000274  00000+0  90876-4 0  9993
2 11574  74.0693 130.4855 0016802 305.5567  54.4022 14.42337363433039
SL-14 R/B               
1 11672U 80005B   26047.25096589  .00000682  00000+0  66558-4 0  9992
2 11672  82.5174 327.5671 0014365 231.7031 128.2897 14.90902614473291
SL-8 R/B                
1 12139U 81003B   26047.20602674  .00015883  00000+0  41884-3 0  9996
2 12139  82.9402 309.8760 0262569 253.5267 103.6967 15.10178344311434
SL-3 R/B                
1 12465U 81046B   26047.36588565  .00015115  00000+0  35812-3 0  9996
2 12465  81.2345 315.3337 0020794  92.5776 267.7848 15.41396066435146
SL-3 R/B                
1 12904U 81103B   26047.52647715  .00006267  00000+0  28001-3 0  9999
2 12904  81.1556 238.2572 0013326   0.7391 359.3857 15.21112009970017
SL-3 R/B                
1 13068U 82013B   26047.47784928  .00005450  00000+0  23772-3 0  9997
2 13068  81.1751 185.6223 0021710 250.6176 109.2709 15.21773772401126
SL-3 R/B                
1 13154U 82039B   26047.51835831  .00002630  00000+0  15899-3 0  9994
2 13154  81.1592 240.3670 0030041  33.6691 326.6435 15.09958057378444
